STARLINK-5721           
1 55617U 23020BA  23260.94614458  .00000760  00000+0  71341-4 0  9997
2 55617  43.0026 222.2843 0000749 269.4468  90.6289 15.02537098 33126
STARLINK-5717           
1 55618U 23020BB  23261.00485361 -.00001204  00000+0 -74036-4 0  9995
2 55618  43.0036 221.8659 0001106 264.9836  95.0880 15.02543211 33136
STARLINK-5720           
1 55619U 23020BC  23260.40543951  .00000508  00000+0  52646-4 0  9996
2 55619  43.0031 225.1090 0001188 264.9944  95.0763 15.02543000 33044
STARLINK-5718           
1 55620U 23020BD  23261.06467067  .00001979  00000+0  16152-3 0  9998
2 55620  43.0019 221.4526 0001073 245.7977 114.2754 15.02534094 33149
STARLINK-5709           
1 55621U 23020BE  23261.00929059  .00000370  00000+0  42475-4 0  9999
2 55621  43.0016 221.9000 0000724 262.9350  97.1410 15.02539801 33135
STARLINK-5702           
1 55622U 23020BF  23260.26915265  .00000312  00000+0  38127-4 0  9996
2 55622  43.0034 225.8058 0001056 274.9981  85.0741 15.02541749 33029
STARLINK-5698           
1 55623U 23020BG  23260.39434073  .00000542  00000+0  55203-4 0  9993
2 55623  43.0025 225.0254 0001193 269.5541  90.5165 15.02541253 33047
STARLINK-5484           
1 55628U 23021A   23260.54300774  .00002204  00000+0  19236-3 0  9998
2 55628  70.0011 324.2203 0003357 276.3101  83.7676 14.98340779 32869
STARLINK-5497           
1 55629U 23021B   23260.88098511  .00001321  00000+0  11843-3 0  9994
2 55629  69.9997 323.3939 0003460 271.3217  88.7546 14.98341179 32613
STARLINK-5303           
1 55630U 23021C   23260.53882890  .00003576  00000+0  30733-3 0  9992
2 55630  69.9999 324.2057 0002975 269.8220  90.2598 14.98330162 32866
STARLINK-5558           
1 55631U 23021D   23260.91434642 -.00000147  00000+0 -45536-5 0  9995
2 55631  70.0004 323.1034 0003481 274.6140  85.4622 14.98335698 32625
STARLINK-5546           
1 55632U 23021E   23260.59724364  .00002159  00000+0  18867-3 0  9991
2 55632  70.0006 324.0050 0003139 268.5430  91.5369 14.98338570 32572
STARLINK-5498           
1 55633U 23021F   23260.52631085  .00003137  00000+0  27050-3 0  9993
2 55633  70.0011 324.1583 0003208 266.4280  93.6512 14.98343493 32863
STARLINK-5500           
1 55634U 23021G   23260.60141540  .00002950  00000+0  25480-3 0  9992
2 55634  69.9997 324.0208 0003647 267.2234  92.8507 14.98343764 32576
STARLINK-5495           
1 55635U 23021H   23261.12709567 -.00000217  00000+0 -10359-4 0  9996
2 55635  69.9992 302.7689 0002975 270.0381  90.0438 14.98334670 33149
STARLINK-5218           
1 55636U 23021J   23261.11880099 -.00000204  00000+0 -92896-5 0  9999
2 55636  70.0014 322.6135 0003316 267.4382  92.6397 14.98338933 32659
STARLINK-5062           
1 55637U 23021K   23261.12693198  .00000143  00000+0  19820-4 0  9998
2 55637  69.9994 302.7684 0003344 269.1705  90.9071 14.98329140 33146
STARLINK-5507           
1 55638U 23021L   23261.12297721 -.00000850  00000+0 -63446-4 0  9991
2 55638  70.0007 322.6298 0003178 274.5154  85.5642 14.98333955 32658
STARLINK-5508           
1 55639U 23021M   23261.11023200 -.00000587  00000+0 -41408-4 0  9991
2 55639  70.0001 302.7094 0003172 267.9101  92.1695 14.98336533 33140
STARLINK-5069           
1 55640U 23021N   23260.56779892  .00002131  00000+0  18629-3 0  9999
2 55640  69.9995 304.0268 0003158 268.3634  91.7163 14.98340562 33365
STARLINK-5065           
1 55641U 23021P   23260.84335912  .00003965  00000+0  33993-3 0  9999
2 55641  69.9998 303.3831 0003194 275.1735  84.9060 14.98328712 33100
STARLINK-5478           
1 55642U 23021Q   23260.53860521  .00002083  00000+0  18227-3 0  9998
2 55642  69.9994 304.3289 0003346 265.2164  94.8613 14.98341092 33357
STARLINK-5483           
1 55643U 23021R   23261.09787461 -.00000341  00000+0 -20742-4 0  9995
2 55643  70.0001 302.6681 0003036 268.5452  91.5359 14.98335882 33147
STARLINK-5502           
1 55644U 23021S   23261.11857970  .00000209  00000+0  25313-4 0  9992
2 55644  69.9997 302.7380 0003397 269.4028  90.6742 14.98334317 33143
STARLINK-5102           
1 55645U 23021T   23260.83403428 -.00000767  00000+0 -59003-4 0  9990
2 55645  69.9989 303.3501 0003404 271.5462  88.5306 14.96706239 33104
STARLINK-5104           
1 55646U 23021U   23261.13110292 -.00000009  00000+0  70567-5 0  9996
2 55646  69.9992 302.7826 0003519 274.0810  85.9947 14.98338511 33146
STARLINK-5510           
1 55647U 23021V   23260.55110375  .00001887  00000+0  16590-3 0  9992
2 55647  69.9998 303.9688 0003235 271.4764  88.6025 14.98337916 33062
STARLINK-5501           
1 55648U 23021W   23260.51356284  .00001535  00000+0  13636-3 0  9998
2 55648  69.9995 304.2398 0003353 274.2189  85.8586 14.98336206 33359
STARLINK-5469           
1 55649U 23021X   23261.09353370 -.00000065  00000+0  23456-5 0  9997
2 55649  70.0004 302.6529 0002850 267.4525  92.6308 14.98336421 33145
STARLINK-5494           
1 55650U 23021Y   23260.50521685  .00000376  00000+0  39278-4 0  9992
2 55650  69.9999 304.2100 0003254 268.7972  91.2814 14.98330869 33359
STARLINK-5506           
1 55651U 23021Z   23261.12275496 -.00000592  00000+0 -41774-4 0  9994
2 55651  69.9997 302.7539 0003659 273.9571  86.1169 14.98331253 33140
STARLINK-5487           
1 55652U 23021AA  23261.09771197 -.00000921  00000+0 -69372-4 0  9990
2 55652  70.0000 302.6674 0003198 272.5334  87.5459 14.98333354 33149
STARLINK-5067           
1 55653U 23021AB  23260.54689948  .00005893  00000+0  50075-3 0  9992
2 55653  69.9992 303.9543 0003511 265.1097  94.9661 14.98369211 33361
STARLINK-5070           
1 55654U 23021AC  23260.53443520  .00000897  00000+0  82915-4 0  9994
2 55654  69.9996 304.3140 0003279 275.5067  84.5718 14.98335316 33050
STARLINK-5267           
1 55655U 23021AD  23261.10701456 -.00000477  00000+0 -31310-4 0  9993
2 55655  70.0000 282.8221 0002901 265.2414  94.8415 14.99304046 33632
STARLINK-5326           
1 55656U 23021AE  23260.54275502  .00001906  00000+0  16745-3 0  9999
2 55656  69.9995 303.9390 0003441 273.1045  86.9720 14.98339176 33365
STARLINK-5328           
1 55657U 23021AF  23261.11445398 -.00060440  00000+0 -50390-2 0  9999
2 55657  69.9993 282.8474 0003144 263.4467  96.6335 14.98803827 33631
STARLINK-5307           
1 55658U 23021AG  23260.55527534  .00001783  00000+0  15715-3 0  9996
2 55658  69.9992 303.9842 0003368 276.0432  84.0344 14.98340250 33362
STARLINK-5477           
1 55659U 23021AH  23261.11020465 -.00063110  00000+0 -52739-2 0  9991
2 55659  69.9994 282.8346 0003208 267.0088  93.0704 14.98730759 33636
STARLINK-5467           
1 55660U 23021AJ  23260.45220230  .00001282  00000+0  11242-3 0  9996
2 55660  69.9992 284.5497 0003100 260.0866  99.9943 14.99306147 33833
STARLINK-5475           
1 55661U 23021AK  23260.91667824  .00062369  00000+0  51935-2 0  9997
2 55661  70.0006 283.2467 0003373 270.4413 193.7863 14.98292005 33606
STARLINK-5479           
1 55662U 23021AL  23261.11835379 -.00003917  00000+0 -32060-3 0  9998
2 55662  69.9991 282.8744 0003132 265.9549  94.1252 14.98336640 33635
STARLINK-5473           
1 55663U 23021AM  23261.08496154 -.00052828  00000+0 -44203-2 0  9995
2 55663  69.9991 282.7470 0003590 270.0392  90.0356 14.98613194 33634
STARLINK-5480           
1 55664U 23021AN  23261.10224280  .00001458  00000+0  12681-3 0  9995
2 55664  70.0001 282.8046 0003464 266.4599  93.6164 14.99309936 33631
STARLINK-5474           
1 55665U 23021AP  23260.49246864  .00001408  00000+0  12578-3 0  9999
2 55665  69.9990 284.2894 0002728 267.8861  92.1986 14.98335928 33840
STARLINK-5456           
1 55667U 23021AR  23261.08080931 -.00002607  00000+0 -21081-3 0  9991
2 55667  70.0000 282.7326 0002641 280.8913  79.1949 14.98323324 33635
STARLINK-5455           
1 55668U 23021AS  23261.25001157 -.00046560  00000+0 -39176-2 0  9993
2 55668  70.0005 282.4056 0003084 268.6262 193.9525 14.98356494 33652
STARLINK-5459           
1 55669U 23021AT  23261.08912752 -.00008303  00000+0 -68808-3 0  9995
2 55669  69.9987 282.7605 0003271 267.0005  93.0779 14.98375287 33638
STARLINK-5423           
1 55670U 23021AU  23260.91667824  .00070284  00000+0  58445-2 0  9995
2 55670  69.9997 283.1188 0003634 267.5350 310.1174 14.98294340 33602
STARLINK-5460           
1 55671U 23021AV  23260.45490213  .00000907  00000+0  83775-4 0  9992
2 55671  69.9988 284.1566 0003300 265.4040  94.6743 14.98333862 33842
STARLINK-5461           
1 55672U 23021AW  23260.45907801 -.00000241  00000+0 -12378-4 0  9993
2 55672  69.9989 284.1715 0003098 268.6338  91.4467 14.98330877 33840
STARLINK-5463           
1 55673U 23021AX  23260.47159795  .00001086  00000+0  98770-4 0  9993
2 55673  69.9984 284.2148 0003506 268.1134  91.9624 14.98335942 33848
STARLINK-5462           
1 55674U 23021AY  23260.46325054  .00001595  00000+0  14146-3 0  9995
2 55674  69.9987 284.1858 0003375 274.4473  85.6300 14.98331577 33840
STARLINK-5232           
1 55675U 23021AZ  23260.47176666  .00001429  00000+0  12752-3 0  9997
2 55675  69.9988 284.2168 0003128 271.5667  88.5134 14.98324087 33841
STARLINK-5300           
1 55676U 23021BA  23261.09023199  .00005012  00000+0  43416-4 0  9993
2 55676  70.0011 272.9692 0003534 269.5203  90.5588 15.69929816 33871
STARLINK-5324           
1 55677U 23021BB  23261.09012703  .00002725  00000+0  24421-4 0  9996
2 55677  70.0003 272.9687 0003540 268.2352  91.8438 15.69925978 33867
STARLINK-5314           
1 55678U 23021BC  23260.46742375  .00001216  00000+0  10971-3 0  9990
2 55678  69.9988 284.2005 0002906 264.7937  95.2891 14.98334198 33840
STARLINK-30050          
1 55695U 23026A   23261.08389664 -.00003497  00000+0 -23222-4 0  9990
2 55695  43.0017 145.9693 0002794 279.1132  80.9420 15.71349379 32806
STARLINK-30040          
1 55697U 23026C   23261.25001157  .00488276  10141-3  13313-2 0  9998
2 55697  42.9871 133.7534 0008698 263.9493 101.6241 15.93240323 32909
